[{"OBJECT_NAME":"STARLINK-34037","OBJECT_ID":"2025-093M","EPOCH":"2026-03-09T10:18:13.972896","MEAN_MOTION":15.27594784,"ECCENTRICITY":9.597e-5,"INCLINATION":42.9975,"RA_OF_ASC_NODE":79.2583,"ARG_OF_PERICENTER":132.733,"MEAN_ANOMALY":227.3602,"EPHEMERIS_TYPE":0,"CLASSIFICATION_TYPE":"U","NORAD_CAT_ID":63847,"ELEMENT_SET_NO":999,"REV_AT_EPOCH":4793,"BSTAR":0.00086017632,"MEAN_MOTION_DOT":0.00023494,"MEAN_MOTION_DDOT":0},{"OBJECT_NAME":"OBJECT D","OBJECT_ID":"2025-197D","EPOCH":"2026-03-09T23:30:56.303712","MEAN_MOTION":15.25287442,"ECCENTRICITY":0.00144425,"INCLINATION":97.4091,"RA_OF_ASC_NODE":257.3677,"ARG_OF_PERICENTER":3.398,"MEAN_ANOMALY":356.7353,"EPHEMERIS_TYPE":0,"CLASSIFICATION_TYPE":"U","NORAD_CAT_ID":65491,"ELEMENT_SET_NO":999,"REV_AT_EPOCH":2822,"BSTAR":0.00037200129,"MEAN_MOTION_DOT":9.321e-5,"MEAN_MOTION_DDOT":0}]
